NORAD_CAT_ID,OBJECT_NAME,OBJECT_TYPE,EPOCH,MEAN_MOTION,ECCENTRICITY,INCLINATION,RA_OF_ASC_NODE,ARG_OF_PERICENTER,MEAN_ANOMALY,BSTAR,MEAN_MOTION_DOT,MEAN_MOTION_DDOT,TLE_LINE0,TLE_LINE1,TLE_LINE2,SEMIMAJOR_AXIS,PERIOD,APOGEE,PERIGEE,DECAYED
53748.0,STARLINK-4669,PAYLOAD,2022-11-27 14:00:01,15.08811483,0.0002229,53.2142,242.7841,37.4593,108.8287,0.0026147,0.00041539,0.0,0 STARLINK-4669,1 53748U 22107BA  22331.58334491  .00041539  00000-0  26147-2 0  9991,2 53748  53.2142 242.7841 0002229  37.4593 108.8287 15.08811483  1307,6917.968000000003,95.439,541.375,538.2909999999998,0.0
53748.0,STARLINK-4669,PAYLOAD,2022-11-27 22:00:00,15.08865845,0.0002341,53.2143,241.2884,38.3544,119.5078,-0.0039671,-0.00062921,0.0,0 STARLINK-4669,1 53748U 22107BA  22331.91667824 -.00062921  00000-0 -39671-2 0  9993,2 53748  53.2143 241.2884 0002341  38.3544 119.5078 15.08865845  1308,6917.801,95.436,541.286,538.047,0.0
53748.0,STARLINK-4669,PAYLOAD,2022-11-28 08:00:01,15.0883906,0.000242,53.2141,239.4183,34.6251,227.7286,-0.00049826,-8.209999999999999e-05,0.0,0 STARLINK-4669,1 53748U 22107BA  22332.33334491 -.00008210  00000-0 -49826-3 0  9996,2 53748  53.2141 239.4183 0002420  34.6251 227.7286 15.08839060 13046,6917.8830000000025,95.438,541.422,538.0740000000002,0.0
53748.0,STARLINK-4669,PAYLOAD,2022-11-28 22:00:01,15.08872961,0.0002382,53.2145,236.7991,37.8722,154.8281,-0.0040363,-0.00064016,0.0,0 STARLINK-4669,1 53748U 22107BA  22332.91668981 -.00064016  00000-0 -40363-2 0  9996,2 53748  53.2145 236.7991 0002382  37.8722 154.8281 15.08872961  1300,6917.78,95.435,541.2919999999998,537.997,0.0
53748.0,STARLINK-4669,PAYLOAD,2022-11-29 06:00:00,15.08829579,0.0002476,53.2143,235.3034,33.7617,170.4843,0.0007877,0.00012267,0.0,0 STARLINK-4669,1 53748U 22107BA  22333.25001157  .00012267  00000-0  78770-3 0  9993,2 53748  53.2143 235.3034 0002476  33.7617 170.4843 15.08829579 13187,6917.9119999999975,95.438,541.49,538.064,0.0
53748.0,STARLINK-4669,PAYLOAD,2022-11-29 14:00:01,15.08801953,0.0002248,53.2146,233.8051,36.0058,179.90200000000004,0.0020101,0.00031815,0.0,0 STARLINK-4669,1 53748U 22107BA  22333.58335648  .00031815  00000-0  20101-2 0  9998,2 53748  53.2146 233.8051 0002248  36.0058 179.9020 15.08801953  1302,6917.996999999999,95.44,541.4169999999998,538.307,0.0
53748.0,STARLINK-4669,PAYLOAD,2022-11-29 22:00:00,15.08834366,0.0002372,53.2148,232.3099,36.0509,191.3566,-0.0008276,-0.00013434,0.0,0 STARLINK-4669,1 53748U 22107BA  22333.91667824 -.00013434  00000-0 -82760-3 0  9998,2 53748  53.2148 232.3099 0002372  36.0509 191.3566 15.08834366 13286,6917.898,95.438,541.404,538.122,0.0
53748.0,STARLINK-4669,PAYLOAD,2022-11-30 14:00:01,15.08832914,0.0002214,53.2151,229.3163,37.9081,212.7409,0.00088798,0.0001386999999999,0.0,0 STARLINK-4669,1 53748U 22107BA  22334.58335648  .00013870  00000-0  88798-3 0  9997,2 53748  53.2151 229.3163 0002214  37.9081 212.7409 15.08832914 13380,6917.901999999999,95.438,541.299,538.235,0.0
53748.0,STARLINK-4669,PAYLOAD,2022-11-30 22:00:00,15.08865582,0.0002256,53.2162,227.8231,38.1821,223.9936,-0.0060847,-0.00095911,0.0,0 STARLINK-4669,1 53748U 22107BA  22334.91667824 -.00095911  00000-0 -60847-2 0  9990,2 53748  53.2162 227.8231 0002256  38.1821 223.9936 15.08865582  1307,6917.802,95.436,541.2280000000002,538.107,0.0
53748.0,STARLINK-4669,PAYLOAD,2022-12-01 06:00:00,15.08833146,0.0002421,53.2149,226.3252,34.1022,239.6519,0.00026706,3.964e-05,0.0,0 STARLINK-4669,1 53748U 22107BA  22335.25001157  .00003964  00000-0  26706-3 0  9991,2 53748  53.2149 226.3252 0002421  34.1022 239.6519 15.08833146 13486,6917.901,95.438,541.441,538.092,0.0
53748.0,STARLINK-4669,PAYLOAD,2022-12-01 14:00:01,15.08821122,0.0002222,53.2148,224.8265,38.7,246.6632,0.0035865,0.00057226,0.0,0 STARLINK-4669,1 53748U 22107BA  22335.58334491  .00057226  00000-0  35865-2 0  9992,2 53748  53.2148 224.8265 0002222  38.7000 246.6632 15.08821122  1300,6917.938,95.439,541.34,538.266,0.0
53748.0,STARLINK-4669,PAYLOAD,2022-12-01 22:00:00,15.08875521,0.0002339,53.2149,223.3314,36.7809,260.1745,-0.0038248,-0.00060709,0.0,0 STARLINK-4669,1 53748U 22107BA  22335.91667824 -.00060709  00000-0 -38248-2 0  9998,2 53748  53.2149 223.3314 0002339  36.7809 260.1745 15.08875521  1302,6917.772,95.435,541.255,538.019,0.0
53748.0,STARLINK-4669,PAYLOAD,2022-12-02 14:00:01,15.088685,0.0001906,53.2146,220.3371,35.091,285.0955,-0.0029033,-0.00046235,0.0,0 STARLINK-4669,1 53748U 22107BA  22336.58334491 -.00046235  00000-0 -29033-2 0  9993,2 53748  53.2146 220.3371 0001906  35.0910 285.0955 15.08868500 13685,6917.793000000002,95.436,540.977,538.34,0.0
53748.0,STARLINK-4669,PAYLOAD,2022-12-02 22:00:00,15.08834034,0.0002052,53.2146,218.8422,32.174,299.6196,-0.00092236,-0.00014936,0.0,0 STARLINK-4669,1 53748U 22107BA  22336.91667824 -.00014936  00000-0 -92236-3 0  9998,2 53748  53.2146 218.8422 0002052  32.1740 299.6196 15.08834034  1305,6917.899,95.438,541.183,538.344,0.0
53748.0,STARLINK-4669,PAYLOAD,2022-12-03 08:00:01,15.08854652,0.0002103,53.2143,216.9712,33.7123,42.5568,-0.0044953,-0.00071156,0.0,0 STARLINK-4669,1 53748U 22107BA  22337.33334491 -.00071156  00000-0 -44953-2 0  9995,2 53748  53.2143 216.9712 0002103  33.7123  42.5568 15.08854652 13806,6917.8359999999975,95.437,541.155,538.246,0.0
53748.0,STARLINK-4669,PAYLOAD,2022-12-03 14:00:01,15.08789305,0.0002013,53.2142,215.848,38.8499,316.1184,0.0032597,0.00051901,0.0,0 STARLINK-4669,1 53748U 22107BA  22337.58334491  .00051901  00000-0  32597-2 0  9997,2 53748  53.2142 215.8480 0002013  38.8499 316.1184 15.08789305  1305,6918.035,95.441,541.293,538.508,0.0
53748.0,STARLINK-4669,PAYLOAD,2022-12-03 22:00:00,15.08824149,0.0002225,53.2142,214.3533,37.1986,329.3253,-0.00086059,-0.00013953,0.0,0 STARLINK-4669,1 53748U 22107BA  22337.91667824 -.00013953  00000-0 -86059-3 0  9993,2 53748  53.2142 214.3533 0002225  37.1986 329.3253 15.08824149  1305,6917.929,95.439,541.3330000000002,538.255,0.0
53748.0,STARLINK-4669,PAYLOAD,2022-12-04 14:00:01,15.08812305,0.0002124,53.214,211.3589,41.077,348.6033,0.0031351,0.00049924,0.0,0 STARLINK-4669,1 53748U 22107BA  22338.58334491  .00049924  00000-0  31351-2 0  9997,2 53748  53.2140 211.3589 0002124  41.0770 348.6033 15.08812305  1305,6917.965,95.439,541.299,538.361,0.0
53748.0,STARLINK-4669,PAYLOAD,2022-12-04 22:00:00,15.08845893,0.0002338,53.214,209.8642,38.9288,2.3344,-0.00058473,-9.584e-05,0.0,0 STARLINK-4669,1 53748U 22107BA  22338.91667824 -.00009584  00000-0 -58473-3 0  9998,2 53748  53.2140 209.8642 0002338  38.9288   2.3344 15.08845893  1300,6917.861999999999,95.437,541.345,538.11,0.0
53748.0,STARLINK-4669,PAYLOAD,2022-12-05 06:00:00,15.08873388,0.0002325,53.214,208.3674,36.3081,16.55,-0.0038895,-0.00061719,0.0,0 STARLINK-4669,1 53748U 22107BA  22339.25001157 -.00061719  00000-0 -38895-2 0  9990,2 53748  53.2140 208.3674 0002325  36.3081  16.5500 15.08873388 14099,6917.778,95.435,541.252,538.035,0.0
53748.0,STARLINK-4669,PAYLOAD,2022-12-05 14:00:01,15.0881467,0.0002171,53.2141,206.8695,40.515,24.0164,0.0028637,0.00045552,0.0,0 STARLINK-4669,1 53748U 22107BA  22339.58335648  .00045552  00000-0  28637-2 0  9999,2 53748  53.2141 206.8695 0002171  40.5150  24.0164 15.08814670  1308,6917.958000000001,95.439,541.325,538.321,0.0
53748.0,STARLINK-4669,PAYLOAD,2022-12-05 21:39:53,15.08831875,0.0002278,53.2148,205.4366,42.4664,317.6504,7.1616e-05,8.51e-06,0.0,0 STARLINK-4669,1 53748U 22107BA  22339.90270433  .00000851  00000-0  71616-4 0  9995,2 53748  53.2148 205.4366 0002278  42.4664 317.6504 15.08831875 14190,6917.905,95.438,541.346,538.194,0.0
53748.0,STARLINK-4669,PAYLOAD,2022-12-06 08:47:35,15.08837117,0.0002301,53.2153,203.3549,41.3003,318.8162,9.8716e-05,1.283e-05,0.0,0 STARLINK-4669,1 53748U 22107BA  22340.36638173  .00001283  00000-0  98716-4 0  9996,2 53748  53.2153 203.3549 0002301  41.3003 318.8162 15.08837117 15041,6917.889,95.438,541.346,538.1619999999998,0.0
53748.0,STARLINK-4669,PAYLOAD,2022-12-06 16:44:31,15.0883774,0.0002523,53.2139,201.8688,45.1707,314.949,-1.3334e-05,-5.01e-06,0.0,0 STARLINK-4669,1 53748U 22107BA  22340.69758679 -.00000501  00000-0 -13334-4 0  9993,2 53748  53.2139 201.8688 0002523  45.1707 314.9490 15.08837740 15099,6917.887,95.438,541.498,538.007,0.0
53748.0,STARLINK-4669,PAYLOAD,2022-12-07 00:41:27,15.08833239,0.0002293,53.2147,200.3812,45.3954,314.7225,-5.0252e-05,-1.088e-05,0.0,0 STARLINK-4669,1 53748U 22107BA  22341.02879109 -.00001088  00000-0 -50252-4 0  9994,2 53748  53.2147 200.3812 0002293  45.3954 314.7225 15.08833239 14363,6917.901,95.438,541.352,538.18,0.0
53748.0,STARLINK-4669,PAYLOAD,2022-12-07 21:21:29,15.08825015,0.0002304,53.2154,196.5157,41.971,318.1458,-6.611199999999999e-05,-1.34e-05,0.0,0 STARLINK-4669,1 53748U 22107BA  22341.88991981 -.00001340  00000-0 -66112-4 0  9994,2 53748  53.2154 196.5157 0002304  41.9710 318.1458 15.08825015 14497,6917.926,95.439,541.385,538.197,0.0
53748.0,STARLINK-4669,PAYLOAD,2022-12-08 06:53:47,15.08831435,0.0002145,53.2171,194.7331,43.9186,316.1977,-5.0451e-05,-1.091e-05,0.0,0 STARLINK-4669,1 53748U 22107BA  22342.28735830 -.00001091  00000-0 -50451-4 0  9990,2 53748  53.2171 194.7331 0002145  43.9186 316.1977 15.08831435 15333,6917.906999999997,95.438,541.255,538.288,0.0
53748.0,STARLINK-4669,PAYLOAD,2022-12-08 21:12:15,15.08834927,0.0002732,53.2171,192.0567,55.3645,304.7604,3.7729e-05,3.12e-06,0.0,0 STARLINK-4669,1 53748U 22107BA  22342.88351620  .00000312  00000-0  37729-4 0  9993,2 53748  53.2171 192.0567 0002732  55.3645 304.7604 15.08834927 15423,6917.896,95.438,541.651,537.871,0.0
53748.0,STARLINK-4669,PAYLOAD,2022-12-09 00:23:01,15.08850255,0.0002143,53.2169,191.4601,46.2689,313.848,-0.00012733,-2.315e-05,0.0,0 STARLINK-4669,1 53748U 22107BA  22343.01599096 -.00002315  00000-0 -12733-3 0  9994,2 53748  53.2169 191.4601 0002143  46.2689 313.8480 15.08850255 14665,6917.849,95.437,541.197,538.232,0.0
